Postcode,Locality,State,Longitude,Latitude,SA3,SA3 Name,SA4,SA4 Name,Region
3000,MELBOURNE,VIC,144.956776,-37.817403000000006,20604.0,Melbourne City,206.0,Melbourne - Inner,R1
3002,EAST MELBOURNE,VIC,144.98220700000002,-37.818517,20604.0,Melbourne City,206.0,Melbourne - Inner,R1
3003,WEST MELBOURNE,VIC,144.949592,-37.810871,20604.0,Melbourne City,206.0,Melbourne - Inner,R1
3004,MELBOURNE,VIC,144.97016100000002,-37.844246000000005,20605.0,Port Phillip,206.0,Melbourne - Inner,R1
3005,WORLD TRADE CENTRE,VIC,144.950858,-37.824608000000005,20604.0,Melbourne City,206.0,Melbourne - Inner,R1
3006,SOUTH WHARF,VIC,144.9520744,-37.82528675,20605.0,Port Phillip,206.0,Melbourne - Inner,R1
3006,SOUTHBANK,VIC,144.965926,-37.823258,20605.0,Port Phillip,206.0,Melbourne - Inner,R1
3008,DOCKLANDS,VIC,144.948039,-37.814719000000004,20604.0,Melbourne City,206.0,Melbourne - Inner,R1
3010,UNIVERSITY OF MELBOURNE,VIC,144.961351,-37.796152,20604.0,Melbourne City,206.0,Melbourne - Inner,R1
3011,FOOTSCRAY,VIC,144.907953,-37.807101,21303.0,Maribyrnong,213.0,Melbourne - West,R1
3011,SEDDON,VIC,144.907953,-37.807101,21303.0,Maribyrnong,213.0,Melbourne - West,R1
3011,SEDDON WEST,VIC,144.907953,-37.807101,21303.0,Maribyrnong,213.0,Melbourne - West,R1
3012,BROOKLYN,VIC,144.861162,-37.807134999999995,21303.0,Maribyrnong,213.0,Melbourne - West,R1
3012,KINGSVILLE,VIC,144.861162,-37.807134999999995,21303.0,Maribyrnong,213.0,Melbourne - West,R1
3012,KINGSVILLE WEST,VIC,144.861162,-37.807134999999995,21303.0,Maribyrnong,213.0,Melbourne - West,R1
3012,MAIDSTONE,VIC,144.861162,-37.807134999999995,21303.0,Maribyrnong,213.0,Melbourne - West,R1
3012,TOTTENHAM,VIC,144.861162,-37.807134999999995,21303.0,Maribyrnong,213.0,Melbourne - West,R1
3012,WEST FOOTSCRAY,VIC,144.861162,-37.807134999999995,21303.0,Maribyrnong,213.0,Melbourne - West,R1
3013,YARRAVILLE,VIC,144.888686,-37.814183,21303.0,Maribyrnong,213.0,Melbourne - West,R1
3013,YARRAVILLE WEST,VIC,144.888686,-37.814183,21303.0,Maribyrnong,213.0,Melbourne - West,R1
3015,NEWPORT,VIC,144.880556,-37.838242,21302.0,Hobsons Bay,213.0,Melbourne - West,R1
3015,SOUTH KINGSVILLE,VIC,144.880556,-37.838242,21302.0,Hobsons Bay,213.0,Melbourne - West,R1
3015,SPOTSWOOD,VIC,144.880556,-37.838242,21302.0,Hobsons Bay,213.0,Melbourne - West,R1
3016,WILLIAMSTOWN,VIC,144.888461,-37.863743,21302.0,Hobsons Bay,213.0,Melbourne - West,R1
3016,WILLIAMSTOWN NORTH,VIC,144.888461,-37.863743,21302.0,Hobsons Bay,213.0,Melbourne - West,R1
3018,ALTONA,VIC,144.812736,-37.86172,21302.0,Hobsons Bay,213.0,Melbourne - West,R1
3018,SEAHOLME,VIC,144.812736,-37.86172,21302.0,Hobsons Bay,213.0,Melbourne - West,R1
3019,BRAYBROOK,VIC,144.85401399999998,-37.784683,21303.0,Maribyrnong,213.0,Melbourne - West,R1
3019,BRAYBROOK NORTH,VIC,144.85401399999998,-37.784683,21303.0,Maribyrnong,213.0,Melbourne - West,R1
3019,ROBINSON,VIC,144.85401399999998,-37.784683,21303.0,Maribyrnong,213.0,Melbourne - West,R1
3020,ALBION,VIC,144.829945,-37.777204,21301.0,Brimbank,213.0,Melbourne - West,R1
3020,GLENGALA,VIC,144.829945,-37.777204,21301.0,Brimbank,213.0,Melbourne - West,R1
3020,SUNSHINE,VIC,144.829945,-37.777204,21301.0,Brimbank,213.0,Melbourne - West,R1
3020,SUNSHINE NORTH,VIC,144.829945,-37.777204,21301.0,Brimbank,213.0,Melbourne - West,R1
3020,SUNSHINE WEST,VIC,144.829945,-37.777204,21301.0,Brimbank,213.0,Melbourne - West,R1
3021,ALBANVALE,VIC,144.796693,-37.743361,21301.0,Brimbank,213.0,Melbourne - West,R1
3021,KEALBA,VIC,144.796693,-37.743361,21301.0,Brimbank,213.0,Melbourne - West,R1
3021,KINGS PARK,VIC,144.796693,-37.743361,21301.0,Brimbank,213.0,Melbourne - West,R1
3021,ST ALBANS,VIC,144.796693,-37.743361,21301.0,Brimbank,213.0,Melbourne - West,R1
3022,ARDEER,VIC,144.79396100000002,-37.795937,21301.0,Brimbank,213.0,Melbourne - West,R1
3022,DEER PARK EAST,VIC,144.79396100000002,-37.795937,21301.0,Brimbank,213.0,Melbourne - West,R1
3023,BURNSIDE,VIC,144.77064099999998,-37.78272,21304.0,Melton - Bacchus Marsh,213.0,Melbourne - West,R1
3023,BURNSIDE HEIGHTS,VIC,144.755657,-37.73218752,21304.0,Melton - Bacchus Marsh,213.0,Melbourne - West,R1
3023,CAIRNLEA,VIC,144.77064099999998,-37.78272,21304.0,Melton - Bacchus Marsh,213.0,Melbourne - West,R1
3023,CAROLINE SPRINGS,VIC,144.77064099999998,-37.78272,21304.0,Melton - Bacchus Marsh,213.0,Melbourne - West,R1
3023,DEER PARK,VIC,144.77064099999998,-37.78272,21304.0,Melton - Bacchus Marsh,213.0,Melbourne - West,R1
3023,DEER PARK NORTH,VIC,144.77064099999998,-37.78272,21304.0,Melton - Bacchus Marsh,213.0,Melbourne - West,R1
3023,RAVENHALL,VIC,144.77064099999998,-37.78272,21304.0,Melton - Bacchus Marsh,213.0,Melbourne - West,R1
3024,FIELDSTONE,VIC,144.649936,-37.75045631,21305.0,Wyndham,213.0,Melbourne - West,R1
3024,MAMBOURIN,VIC,144.556552,-37.899873,21305.0,Wyndham,213.0,Melbourne - West,R1
3024,MANOR LAKES,VIC,144.5812323,-37.86694209,21305.0,Wyndham,213.0,Melbourne - West,R1
3024,MOUNT COTTRELL,VIC,144.556552,-37.899873,21305.0,Wyndham,213.0,Melbourne - West,R1
3024,WYNDHAM VALE,VIC,144.556552,-37.899873,21305.0,Wyndham,213.0,Melbourne - West,R1
3025,ALTONA EAST,VIC,144.839704,-37.835562,21305.0,Wyndham,213.0,Melbourne - West,R1
3025,ALTONA GATE,VIC,144.839704,-37.835562,21305.0,Wyndham,213.0,Melbourne - West,R1
3025,ALTONA NORTH,VIC,144.839704,-37.835562,21305.0,Wyndham,213.0,Melbourne - West,R1
3026,LAVERTON NORTH,VIC,144.774986,-37.829923,21305.0,Wyndham,213.0,Melbourne - West,R1
3027,LAVERTON RAAF,VIC,144.754147,-37.932419,21305.0,Wyndham,213.0,Melbourne - West,R1
3027,WILLIAMS LANDING,VIC,144.7430155,-37.86199812,21305.0,Wyndham,213.0,Melbourne - West,R1
3028,ALTONA MEADOWS,VIC,144.777165,-37.875066,21305.0,Wyndham,213.0,Melbourne - West,R1
3028,LAVERTON,VIC,144.777165,-37.875066,21305.0,Wyndham,213.0,Melbourne - West,R1
3028,SEABROOK,VIC,144.777165,-37.875066,21305.0,Wyndham,213.0,Melbourne - West,R1
3029,HOPPERS CROSSING,VIC,144.70583100000002,-37.837165,21305.0,Wyndham,213.0,Melbourne - West,R1
3029,TARNEIT,VIC,144.70583100000002,-37.837165,21305.0,Wyndham,213.0,Melbourne - West,R1
3029,TRUGANINA,VIC,144.70583100000002,-37.837165,21305.0,Wyndham,213.0,Melbourne - West,R1
3030,COCOROC,VIC,144.64209,-37.91624,21305.0,Wyndham,213.0,Melbourne - West,R1
3030,DERRIMUT,VIC,144.64209,-37.91624,21305.0,Wyndham,213.0,Melbourne - West,R1
3030,POINT COOK,VIC,144.64209,-37.91624,21305.0,Wyndham,213.0,Melbourne - West,R1
3030,QUANDONG,VIC,144.64209,-37.91624,21305.0,Wyndham,213.0,Melbourne - West,R1
3030,WERRIBEE,VIC,144.64209,-37.91624,21305.0,Wyndham,213.0,Melbourne - West,R1
3030,WERRIBEE SOUTH,VIC,144.64209,-37.91624,21305.0,Wyndham,213.0,Melbourne - West,R1
3031,FLEMINGTON,VIC,144.923403,-37.79119,20604.0,Melbourne City,206.0,Melbourne - Inner,R1
3031,KENSINGTON,VIC,144.923403,-37.79119,20604.0,Melbourne City,206.0,Melbourne - Inner,R1
3032,ASCOT VALE,VIC,144.897221,-37.774485999999996,21303.0,Maribyrnong,213.0,Melbourne - West,R1
3032,HIGHPOINT CITY,VIC,144.897221,-37.774485999999996,21303.0,Maribyrnong,213.0,Melbourne - West,R1
3032,MARIBYRNONG,VIC,144.897221,-37.774485999999996,21303.0,Maribyrnong,213.0,Melbourne - West,R1
3032,TRAVANCORE,VIC,144.897221,-37.774485999999996,21303.0,Maribyrnong,213.0,Melbourne - West,R1
3033,KEILOR EAST,VIC,144.85763799999998,-37.74107,21301.0,Brimbank,213.0,Melbourne - West,R1
3034,AVONDALE HEIGHTS,VIC,144.86194,-37.761235,21001.0,Keilor,210.0,Melbourne - North West,R1
3036,KEILOR,VIC,144.82246,-37.705324,21301.0,Brimbank,213.0,Melbourne - West,R1
3036,KEILOR NORTH,VIC,144.82246,-37.705324,21301.0,Brimbank,213.0,Melbourne - West,R1
3037,DELAHEY,VIC,144.780474,-37.715579,21304.0,Melton - Bacchus Marsh,213.0,Melbourne - West,R1
3037,HILLSIDE,VIC,144.780474,-37.715579,21304.0,Melton - Bacchus Marsh,213.0,Melbourne - West,R1
3037,SYDENHAM,VIC,144.780474,-37.715579,21304.0,Melton - Bacchus Marsh,213.0,Melbourne - West,R1
3037,TAYLORS HILL,VIC,144.780474,-37.715579,21304.0,Melton - Bacchus Marsh,213.0,Melbourne - West,R1
3038,KEILOR DOWNS,VIC,144.766873,-37.700454,21301.0,Brimbank,213.0,Melbourne - West,R1
3038,KEILOR LODGE,VIC,144.766873,-37.700454,21301.0,Brimbank,213.0,Melbourne - West,R1
3038,TAYLORS LAKES,VIC,144.766873,-37.700454,21301.0,Brimbank,213.0,Melbourne - West,R1
3038,WATERGARDENS,VIC,144.766873,-37.700454,21301.0,Brimbank,213.0,Melbourne - West,R1
3039,MOONEE PONDS,VIC,144.922995,-37.766184,20603.0,Essendon,206.0,Melbourne - Inner,R1
3040,ABERFELDIE,VIC,144.902556,-37.751845,21001.0,Keilor,210.0,Melbourne - North West,R1
3040,ESSENDON,VIC,144.902556,-37.751845,21001.0,Keilor,210.0,Melbourne - North West,R1
3040,ESSENDON WEST,VIC,144.902556,-37.751845,21001.0,Keilor,210.0,Melbourne - North West,R1
3041,ESSENDON FIELDS,VIC,144.9011039,-37.72674618,21003.0,Moreland - North,210.0,Melbourne - North West,R1
3041,ESSENDON NORTH,VIC,144.90481499999999,-37.731464,21003.0,Moreland - North,210.0,Melbourne - North West,R1
3041,STRATHMORE,VIC,144.90481499999999,-37.731464,21003.0,Moreland - North,210.0,Melbourne - North West,R1
3041,STRATHMORE HEIGHTS,VIC,144.90481499999999,-37.731464,21003.0,Moreland - North,210.0,Melbourne - North West,R1
3042,AIRPORT WEST,VIC,144.866305,-37.727529,21001.0,Keilor,210.0,Melbourne - North West,R1
3042,KEILOR PARK,VIC,144.866305,-37.727529,21001.0,Keilor,210.0,Melbourne - North West,R1
3042,NIDDRIE,VIC,144.866305,-37.727529,21001.0,Keilor,210.0,Melbourne - North West,R1
3043,GLADSTONE PARK,VIC,144.88836799999999,-37.691916,21005.0,Tullamarine - Broadmeadows,210.0,Melbourne - North West,R1
3043,GOWANBRAE,VIC,144.88836799999999,-37.691916,21005.0,Tullamarine - Broadmeadows,210.0,Melbourne - North West,R1
3043,TULLAMARINE,VIC,144.88836799999999,-37.691916,21005.0,Tullamarine - Broadmeadows,210.0,Melbourne - North West,R1
3044,PASCOE VALE,VIC,144.93635600000002,-37.731138,21003.0,Moreland - North,210.0,Melbourne - North West,R1
3044,PASCOE VALE SOUTH,VIC,144.93635600000002,-37.731138,21003.0,Moreland - North,210.0,Melbourne - North West,R1
3045,MELBOURNE AIRPORT,VIC,144.836195,-37.674739,21005.0,Tullamarine - Broadmeadows,210.0,Melbourne - North West,R1
3046,GLENROY,VIC,144.927968,-37.706578,21003.0,Moreland - North,210.0,Melbourne - North West,R1
3046,HADFIELD,VIC,144.927968,-37.706578,21003.0,Moreland - North,210.0,Melbourne - North West,R1
3046,OAK PARK,VIC,144.927968,-37.706578,21003.0,Moreland - North,210.0,Melbourne - North West,R1
3047,BROADMEADOWS,VIC,144.930247,-37.681105,21005.0,Tullamarine - Broadmeadows,210.0,Melbourne - North West,R1
3047,DALLAS,VIC,144.930247,-37.681105,21005.0,Tullamarine - Broadmeadows,210.0,Melbourne - North West,R1
3047,JACANA,VIC,144.930247,-37.681105,21005.0,Tullamarine - Broadmeadows,210.0,Melbourne - North West,R1
3048,COOLAROO,VIC,144.923609,-37.653917,21005.0,Tullamarine - Broadmeadows,210.0,Melbourne - North West,R1
3048,MEADOW HEIGHTS,VIC,144.923609,-37.653917,21005.0,Tullamarine - Broadmeadows,210.0,Melbourne - North West,R1
3049,ATTWOOD,VIC,144.88849199999999,-37.673182000000004,21005.0,Tullamarine - Broadmeadows,210.0,Melbourne - North West,R1
3049,WESTMEADOWS,VIC,144.88849199999999,-37.673182000000004,21005.0,Tullamarine - Broadmeadows,210.0,Melbourne - North West,R1
3050,ROYAL MELBOURNE HOSPITAL,VIC,144.95458100000002,-37.800323999999996,20604.0,Melbourne City,206.0,Melbourne - Inner,R1
3051,NORTH MELBOURNE,VIC,144.94355900000002,-37.8006,20604.0,Melbourne City,206.0,Melbourne - Inner,R1
3052,MELBOURNE UNIVERSITY,VIC,144.948903,-37.788996000000004,20604.0,Melbourne City,206.0,Melbourne - Inner,R1
3052,PARKVILLE,VIC,144.948903,-37.788996000000004,20604.0,Melbourne City,206.0,Melbourne - Inner,R1
3053,CARLTON,VIC,144.966112,-37.803569,20604.0,Melbourne City,206.0,Melbourne - Inner,R1
3053,CARLTON SOUTH,VIC,144.966112,-37.803569,20604.0,Melbourne City,206.0,Melbourne - Inner,R1
3054,CARLTON NORTH,VIC,144.96724,-37.786971,20607.0,Yarra,206.0,Melbourne - Inner,R1
3054,PRINCES HILL,VIC,144.96724,-37.786971,20607.0,Yarra,206.0,Melbourne - Inner,R1
3055,BRUNSWICK SOUTH,VIC,144.942222,-37.763584,20603.0,Essendon,206.0,Melbourne - Inner,R1
3055,BRUNSWICK WEST,VIC,144.942222,-37.763584,20603.0,Essendon,206.0,Melbourne - Inner,R1
3055,MOONEE VALE,VIC,144.942222,-37.763584,20603.0,Essendon,206.0,Melbourne - Inner,R1
3055,MORELAND WEST,VIC,144.942222,-37.763584,20603.0,Essendon,206.0,Melbourne - Inner,R1
3056,BRUNSWICK,VIC,144.96010800000002,-37.766292,20601.0,Brunswick - Coburg,206.0,Melbourne - Inner,R1
3056,BRUNSWICK LOWER,VIC,144.96010800000002,-37.766292,20601.0,Brunswick - Coburg,206.0,Melbourne - Inner,R1
3056,BRUNSWICK NORTH,VIC,144.96010800000002,-37.766292,20601.0,Brunswick - Coburg,206.0,Melbourne - Inner,R1
3057,BRUNSWICK EAST,VIC,144.97728,-37.770012,20601.0,Brunswick - Coburg,206.0,Melbourne - Inner,R1
3057,SUMNER,VIC,144.98033999999998,-37.772232,20601.0,Brunswick - Coburg,206.0,Melbourne - Inner,R1
3058,BATMAN,VIC,144.964524,-37.739901,21003.0,Moreland - North,210.0,Melbourne - North West,R1
3058,COBURG,VIC,144.964524,-37.739901,21003.0,Moreland - North,210.0,Melbourne - North West,R1
3058,COBURG NORTH,VIC,144.964524,-37.739901,21003.0,Moreland - North,210.0,Melbourne - North West,R1
3058,MERLYNSTON,VIC,144.964524,-37.739901,21003.0,Moreland - North,210.0,Melbourne - North West,R1
3058,MORELAND,VIC,144.964524,-37.739901,21003.0,Moreland - North,210.0,Melbourne - North West,R1
3059,GREENVALE,VIC,144.879626,-37.639887,21005.0,Tullamarine - Broadmeadows,210.0,Melbourne - North West,R1
3060,FAWKNER,VIC,144.967874,-37.707326,21005.0,Tullamarine - Broadmeadows,210.0,Melbourne - North West,R1
3060,FAWKNER EAST,VIC,144.967874,-37.707326,21005.0,Tullamarine - Broadmeadows,210.0,Melbourne - North West,R1
3060,FAWKNER NORTH,VIC,144.967874,-37.707326,21005.0,Tullamarine - Broadmeadows,210.0,Melbourne - North West,R1
3061,CAMPBELLFIELD,VIC,144.956763,-37.666265,21005.0,Tullamarine - Broadmeadows,210.0,Melbourne - North West,R1
3062,SOMERTON,VIC,144.932557,-37.632985999999995,21005.0,Tullamarine - Broadmeadows,210.0,Melbourne - North West,R1
3063,OAKLANDS JUNCTION,VIC,144.85608200000001,-37.595015000000004,21005.0,Tullamarine - Broadmeadows,210.0,Melbourne - North West,R1
3063,YUROKE,VIC,144.85608200000001,-37.595015000000004,21005.0,Tullamarine - Broadmeadows,210.0,Melbourne - North West,R1
3064,CRAIGIEBURN,VIC,144.942199,-37.546521999999996,21005.0,Tullamarine - Broadmeadows,210.0,Melbourne - North West,R1
3064,DONNYBROOK,VIC,144.942199,-37.546521999999996,21005.0,Tullamarine - Broadmeadows,210.0,Melbourne - North West,R1
3064,KALKALLO,VIC,144.942199,-37.546521999999996,21005.0,Tullamarine - Broadmeadows,210.0,Melbourne - North West,R1
3064,MICKLEHAM,VIC,144.942199,-37.546521999999996,21005.0,Tullamarine - Broadmeadows,210.0,Melbourne - North West,R1
3064,ROXBURGH PARK,VIC,144.942199,-37.546521999999996,21005.0,Tullamarine - Broadmeadows,210.0,Melbourne - North West,R1
3065,FITZROY,VIC,144.977795,-37.802608,20607.0,Yarra,206.0,Melbourne - Inner,R1
3066,COLLINGWOOD,VIC,144.986906,-37.804846000000005,20607.0,Yarra,206.0,Melbourne - Inner,R1
3066,COLLINGWOOD NORTH,VIC,144.986906,-37.804846000000005,20607.0,Yarra,206.0,Melbourne - Inner,R1
3067,ABBOTSFORD,VIC,144.998203,-37.803515000000004,20607.0,Yarra,206.0,Melbourne - Inner,R1
3068,CLIFTON HILL,VIC,144.98622,-37.790974,20607.0,Yarra,206.0,Melbourne - Inner,R1
3068,FITZROY NORTH,VIC,144.98622,-37.790974,20607.0,Yarra,206.0,Melbourne - Inner,R1
3070,NORTHCOTE,VIC,144.999745,-37.774064,20607.0,Yarra,206.0,Melbourne - Inner,R1
3070,NORTHCOTE SOUTH,VIC,144.999745,-37.774064,20607.0,Yarra,206.0,Melbourne - Inner,R1
3071,THORNBURY,VIC,145.00700600000002,-37.759426,20602.0,Darebin - South,206.0,Melbourne - Inner,R1
3072,NORTHLAND CENTRE,VIC,145.005702,-37.742470000000004,20902.0,Darebin - North,209.0,Melbourne - North East,R1
3072,PRESTON,VIC,145.005702,-37.742470000000004,20902.0,Darebin - North,209.0,Melbourne - North East,R1
3072,PRESTON LOWER,VIC,145.005702,-37.742470000000004,20902.0,Darebin - North,209.0,Melbourne - North East,R1
3072,PRESTON SOUTH,VIC,145.005702,-37.742470000000004,20902.0,Darebin - North,209.0,Melbourne - North East,R1
3072,PRESTON WEST,VIC,145.005702,-37.742470000000004,20902.0,Darebin - North,209.0,Melbourne - North East,R1
3073,KEON PARK,VIC,145.005955,-37.712474,20902.0,Darebin - North,209.0,Melbourne - North East,R1
3073,RESERVOIR,VIC,145.005955,-37.712474,20902.0,Darebin - North,209.0,Melbourne - North East,R1
3073,RESERVOIR EAST,VIC,145.005955,-37.712474,20902.0,Darebin - North,209.0,Melbourne - North East,R1
3073,RESERVOIR NORTH,VIC,145.005955,-37.712474,20902.0,Darebin - North,209.0,Melbourne - North East,R1
3073,RESERVOIR SOUTH,VIC,145.005955,-37.712474,20902.0,Darebin - North,209.0,Melbourne - North East,R1
3074,THOMASTOWN,VIC,145.006644,-37.684684000000004,21005.0,Tullamarine - Broadmeadows,210.0,Melbourne - North West,R1
3075,LALOR,VIC,145.002679,-37.66607,20904.0,Whittlesea - Wallan,209.0,Melbourne - North East,R1
3075,LALOR PLAZA,VIC,145.002679,-37.66607,20904.0,Whittlesea - Wallan,209.0,Melbourne - North East,R1
3076,EPPING,VIC,145.02213700000001,-37.643598,20904.0,Whittlesea - Wallan,209.0,Melbourne - North East,R1
3078,ALPHINGTON,VIC,145.025853,-37.778298,20607.0,Yarra,206.0,Melbourne - Inner,R1
3078,FAIRFIELD,VIC,145.025853,-37.778298,20607.0,Yarra,206.0,Melbourne - Inner,R1
3079,IVANHOE,VIC,145.048573,-37.772675,20901.0,Banyule,209.0,Melbourne - North East,R1
3079,IVANHOE EAST,VIC,145.048573,-37.772675,20901.0,Banyule,209.0,Melbourne - North East,R1
3079,IVANHOE NORTH,VIC,145.048573,-37.772675,20901.0,Banyule,209.0,Melbourne - North East,R1
3081,BELLFIELD,VIC,145.046401,-37.743008,20901.0,Banyule,209.0,Melbourne - North East,R1
3081,HEIDELBERG HEIGHTS,VIC,145.046401,-37.743008,20901.0,Banyule,209.0,Melbourne - North East,R1
3081,HEIDELBERG WEST,VIC,145.046401,-37.743008,20901.0,Banyule,209.0,Melbourne - North East,R1
3082,MILL PARK,VIC,145.065658,-37.664858,20904.0,Whittlesea - Wallan,209.0,Melbourne - North East,R1
3083,BUNDOORA,VIC,145.056223,-37.701346,20904.0,Whittlesea - Wallan,209.0,Melbourne - North East,R1
3083,KINGSBURY,VIC,145.056223,-37.701346,20904.0,Whittlesea - Wallan,209.0,Melbourne - North East,R1
3083,LA TROBE UNIVERSITY,VIC,145.056223,-37.701346,20904.0,Whittlesea - Wallan,209.0,Melbourne - North East,R1
3084,BANYULE,VIC,145.082685,-37.744406,20901.0,Banyule,209.0,Melbourne - North East,R1
3084,EAGLEMONT,VIC,145.082685,-37.744406,20901.0,Banyule,209.0,Melbourne - North East,R1
3084,HEIDELBERG,VIC,145.082685,-37.744406,20901.0,Banyule,209.0,Melbourne - North East,R1
3084,ROSANNA,VIC,145.082685,-37.744406,20901.0,Banyule,209.0,Melbourne - North East,R1
3084,VIEWBANK,VIC,145.082685,-37.744406,20901.0,Banyule,209.0,Melbourne - North East,R1
3085,MACLEOD,VIC,145.06988,-37.724398,20902.0,Darebin - North,209.0,Melbourne - North East,R1
3085,MACLEOD WEST,VIC,145.06988,-37.724398,20902.0,Darebin - North,209.0,Melbourne - North East,R1
3085,YALLAMBIE,VIC,145.06988,-37.724398,20902.0,Darebin - North,209.0,Melbourne - North East,R1
3086,LA TROBE UNIVERSITY,VIC,145.04701200000002,-37.721328,20902.0,Darebin - North,209.0,Melbourne - North East,R1
3087,WATSONIA,VIC,145.082426,-37.711787,20903.0,Nillumbik - Kinglake,209.0,Melbourne - North East,R1
3087,WATSONIA NORTH,VIC,145.082426,-37.711787,20903.0,Nillumbik - Kinglake,209.0,Melbourne - North East,R1
3088,BRIAR HILL,VIC,145.108339,-37.700175,20903.0,Nillumbik - Kinglake,209.0,Melbourne - North East,R1
3088,GREENSBOROUGH,VIC,145.108339,-37.700175,20903.0,Nillumbik - Kinglake,209.0,Melbourne - North East,R1
3088,SAINT HELENA,VIC,145.108339,-37.700175,20903.0,Nillumbik - Kinglake,209.0,Melbourne - North East,R1
3088,ST HELENA,VIC,145.1294801,-37.68949912,20903.0,Nillumbik - Kinglake,209.0,Melbourne - North East,R1
3089,DIAMOND CREEK,VIC,145.15036899999998,-37.667713,20903.0,Nillumbik - Kinglake,209.0,Melbourne - North East,R1
3090,PLENTY,VIC,145.107802,-37.668408,20903.0,Nillumbik - Kinglake,209.0,Melbourne - North East,R1
3091,YARRAMBAT,VIC,145.136688,-37.637478,20903.0,Nillumbik - Kinglake,209.0,Melbourne - North East,R1
3093,LOWER PLENTY,VIC,145.115208,-37.73919,20901.0,Banyule,209.0,Melbourne - North East,R1
3094,MONTMORENCY,VIC,145.124727,-37.719759,20901.0,Banyule,209.0,Melbourne - North East,R1
3095,ELTHAM,VIC,145.158579,-37.713299,20903.0,Nillumbik - Kinglake,209.0,Melbourne - North East,R1
3095,ELTHAM NORTH,VIC,145.158579,-37.713299,20903.0,Nillumbik - Kinglake,209.0,Melbourne - North East,R1
3095,RESEARCH,VIC,145.158579,-37.713299,20903.0,Nillumbik - Kinglake,209.0,Melbourne - North East,R1
3096,WATTLE GLEN,VIC,145.185826,-37.670851,20903.0,Nillumbik - Kinglake,209.0,Melbourne - North East,R1
3097,BEND OF ISLANDS,VIC,145.22420400000001,-37.695254,20903.0,Nillumbik - Kinglake,209.0,Melbourne - North East,R3
3097,KANGAROO GROUND,VIC,145.22420400000001,-37.695254,20903.0,Nillumbik - Kinglake,209.0,Melbourne - North East,R3
3097,WATSONS CREEK,VIC,145.22420400000001,-37.695254,20903.0,Nillumbik - Kinglake,209.0,Melbourne - North East,R3
3099,ARTHURS CREEK,VIC,145.192854,-37.592101,20903.0,Nillumbik - Kinglake,209.0,Melbourne - North East,R3
3099,COTTLES BRIDGE,VIC,145.192854,-37.592101,20903.0,Nillumbik - Kinglake,209.0,Melbourne - North East,R3
3099,HURSTBRIDGE,VIC,145.192854,-37.592101,20903.0,Nillumbik - Kinglake,209.0,Melbourne - North East,R3
3099,NUTFIELD,VIC,145.192854,-37.592101,20903.0,Nillumbik - Kinglake,209.0,Melbourne - North East,R3
3099,STRATHEWEN,VIC,145.192854,-37.592101,20903.0,Nillumbik - Kinglake,209.0,Melbourne - North East,R3
3101,COTHAM,VIC,145.036575,-37.807396999999995,20701.0,Boroondara,207.0,Melbourne - Inner East,R1
3101,KEW,VIC,145.036575,-37.807396999999995,20701.0,Boroondara,207.0,Melbourne - Inner East,R1
3102,KEW EAST,VIC,145.05219,-37.793805,20701.0,Boroondara,207.0,Melbourne - Inner East,R1
3103,BALWYN,VIC,145.074116,-37.811738,20701.0,Boroondara,207.0,Melbourne - Inner East,R1
3103,BALWYN EAST,VIC,145.074116,-37.811738,20701.0,Boroondara,207.0,Melbourne - Inner East,R1
3103,DEEPDENE,VIC,145.0658595,-37.81141396,20701.0,Boroondara,207.0,Melbourne - Inner East,R1
3104,BALWYN NORTH,VIC,145.08171399999998,-37.793695,20703.0,Whitehorse - West,207.0,Melbourne - Inner East,R1
3104,GREYTHORN,VIC,145.08171399999998,-37.793695,20703.0,Whitehorse - West,207.0,Melbourne - Inner East,R1
3105,BULLEEN,VIC,145.08480600000001,-37.772477,20901.0,Banyule,209.0,Melbourne - North East,R1
3106,TEMPLESTOWE,VIC,145.142675,-37.758334999999995,20702.0,Manningham - West,207.0,Melbourne - Inner East,R1
3107,TEMPLESTOWE LOWER,VIC,145.110677,-37.765225,20702.0,Manningham - West,207.0,Melbourne - Inner East,R1
3108,DONCASTER,VIC,145.125797,-37.786429,20703.0,Whitehorse - West,207.0,Melbourne - Inner East,R1
3109,DONCASTER EAST,VIC,145.161649,-37.784786,21102.0,Manningham - East,211.0,Melbourne - Outer East,R1
3109,DONCASTER HEIGHTS,VIC,145.161649,-37.784786,21102.0,Manningham - East,211.0,Melbourne - Outer East,R1
3109,THE PINES,VIC,145.161649,-37.784786,21102.0,Manningham - East,211.0,Melbourne - Outer East,R1
3111,DONVALE,VIC,145.18633400000002,-37.794053999999996,21102.0,Manningham - East,211.0,Melbourne - Outer East,R1
3113,NORTH WARRANDYTE,VIC,145.204689,-37.752123,21102.0,Manningham - East,211.0,Melbourne - Outer East,R1
3113,WARRANDYTE,VIC,145.204689,-37.752123,21102.0,Manningham - East,211.0,Melbourne - Outer East,R1
3114,PARK ORCHARDS,VIC,145.212599,-37.778595,21103.0,Maroondah,211.0,Melbourne - Outer East,R1
3115,WONGA PARK,VIC,145.26758600000002,-37.736734000000006,21103.0,Maroondah,211.0,Melbourne - Outer East,R1
3116,CHIRNSIDE PARK,VIC,145.313086,-37.737629,21105.0,Yarra Ranges,211.0,Melbourne - Outer East,R1
3121,BURNLEY,VIC,145.00178799999998,-37.823303,20607.0,Yarra,206.0,Melbourne - Inner,R1
3121,BURNLEY NORTH,VIC,145.00709799999998,-37.826869,20607.0,Yarra,206.0,Melbourne - Inner,R1
3121,CREMORNE,VIC,145.00178799999998,-37.823303,20607.0,Yarra,206.0,Melbourne - Inner,R1
3121,RICHMOND,VIC,145.00178799999998,-37.823303,20607.0,Yarra,206.0,Melbourne - Inner,R1
3121,RICHMOND EAST,VIC,145.00178799999998,-37.823303,20607.0,Yarra,206.0,Melbourne - Inner,R1
3121,RICHMOND NORTH,VIC,145.00178799999998,-37.823303,20607.0,Yarra,206.0,Melbourne - Inner,R1
3121,RICHMOND SOUTH,VIC,145.00178799999998,-37.823303,20607.0,Yarra,206.0,Melbourne - Inner,R1
3122,AUBURN SOUTH,VIC,145.03060200000002,-37.822725,20804.0,Stonnington - East,208.0,Melbourne - Inner South,R1
3122,HAWTHORN,VIC,145.03060200000002,-37.822725,20804.0,Stonnington - East,208.0,Melbourne - Inner South,R1
3122,HAWTHORN NORTH,VIC,145.03060200000002,-37.822725,20804.0,Stonnington - East,208.0,Melbourne - Inner South,R1
3122,HAWTHORN WEST,VIC,145.03060200000002,-37.822725,20804.0,Stonnington - East,208.0,Melbourne - Inner South,R1
3123,AUBURN,VIC,145.04941499999998,-37.829752,20701.0,Boroondara,207.0,Melbourne - Inner East,R1
3123,HAWTHORN EAST,VIC,145.04941499999998,-37.829752,20701.0,Boroondara,207.0,Melbourne - Inner East,R1
3124,CAMBERWELL,VIC,145.06819099999998,-37.840866999999996,20701.0,Boroondara,207.0,Melbourne - Inner East,R1
3124,CAMBERWELL NORTH,VIC,145.06819099999998,-37.840866999999996,20701.0,Boroondara,207.0,Melbourne - Inner East,R1
3124,CAMBERWELL SOUTH,VIC,145.06819099999998,-37.840866999999996,20701.0,Boroondara,207.0,Melbourne - Inner East,R1
3124,CAMBERWELL WEST,VIC,145.06819099999998,-37.840866999999996,20701.0,Boroondara,207.0,Melbourne - Inner East,R1
3124,HARTWELL,VIC,145.06819099999998,-37.840866999999996,20701.0,Boroondara,207.0,Melbourne - Inner East,R1
3124,MIDDLE CAMBERWELL,VIC,145.06819099999998,-37.840866999999996,20701.0,Boroondara,207.0,Melbourne - Inner East,R1
3125,BENNETTSWOOD,VIC,145.101,-37.851304999999996,21205.0,Monash,212.0,Melbourne - South East,R1
3125,BURWOOD,VIC,145.101,-37.851304999999996,21205.0,Monash,212.0,Melbourne - South East,R1
3125,SURREY HILLS SOUTH,VIC,145.101,-37.851304999999996,21205.0,Monash,212.0,Melbourne - South East,R1
3126,CAMBERWELL EAST,VIC,145.075748,-37.827203000000004,20701.0,Boroondara,207.0,Melbourne - Inner East,R1
3126,CANTERBURY,VIC,145.075748,-37.827203000000004,20701.0,Boroondara,207.0,Melbourne - Inner East,R1
3127,MONT ALBERT,VIC,145.097236,-37.825173,20703.0,Whitehorse - West,207.0,Melbourne - Inner East,R1
3127,SURREY HILLS,VIC,145.097236,-37.825173,20703.0,Whitehorse - West,207.0,Melbourne - Inner East,R1
3127,SURREY HILLS NORTH,VIC,145.097236,-37.825173,20703.0,Whitehorse - West,207.0,Melbourne - Inner East,R1
3128,BOX HILL,VIC,145.122393,-37.828866,20703.0,Whitehorse - West,207.0,Melbourne - Inner East,R1
3128,BOX HILL CENTRAL,VIC,145.122393,-37.828866,20703.0,Whitehorse - West,207.0,Melbourne - Inner East,R1
3128,BOX HILL SOUTH,VIC,145.122393,-37.828866,20703.0,Whitehorse - West,207.0,Melbourne - Inner East,R1
3128,HOUSTON,VIC,145.122393,-37.828866,20703.0,Whitehorse - West,207.0,Melbourne - Inner East,R1
3128,WATTLE PARK,VIC,145.122393,-37.828866,20703.0,Whitehorse - West,207.0,Melbourne - Inner East,R1
3129,BOX HILL NORTH,VIC,145.12508400000002,-37.806965000000005,20703.0,Whitehorse - West,207.0,Melbourne - Inner East,R1
3129,KERRIMUIR,VIC,145.12508400000002,-37.806965000000005,20703.0,Whitehorse - West,207.0,Melbourne - Inner East,R1
3129,MONT ALBERT NORTH,VIC,145.12508400000002,-37.806965000000005,20703.0,Whitehorse - West,207.0,Melbourne - Inner East,R1
3130,BLACKBURN,VIC,145.149653,-37.81805,20703.0,Whitehorse - West,207.0,Melbourne - Inner East,R1
3130,BLACKBURN NORTH,VIC,145.149653,-37.81805,20703.0,Whitehorse - West,207.0,Melbourne - Inner East,R1
3130,BLACKBURN SOUTH,VIC,145.149653,-37.81805,20703.0,Whitehorse - West,207.0,Melbourne - Inner East,R1
3130,LABURNUM,VIC,145.149653,-37.81805,20703.0,Whitehorse - West,207.0,Melbourne - Inner East,R1
3131,BRENTFORD SQUARE,VIC,145.174489,-37.817797999999996,21104.0,Whitehorse - East,211.0,Melbourne - Outer East,R1
3131,FOREST HILL,VIC,145.174489,-37.817797999999996,21104.0,Whitehorse - East,211.0,Melbourne - Outer East,R1
3131,NUNAWADING,VIC,145.174489,-37.817797999999996,21104.0,Whitehorse - East,211.0,Melbourne - Outer East,R1
3132,MITCHAM,VIC,145.196686,-37.819221999999996,21104.0,Whitehorse - East,211.0,Melbourne - Outer East,R1
3132,MITCHAM NORTH,VIC,145.196686,-37.819221999999996,21104.0,Whitehorse - East,211.0,Melbourne - Outer East,R1
3132,RANGEVIEW,VIC,145.196686,-37.819221999999996,21104.0,Whitehorse - East,211.0,Melbourne - Outer East,R1
3133,VERMONT,VIC,145.192303,-37.848786,21104.0,Whitehorse - East,211.0,Melbourne - Outer East,R1
3133,VERMONT SOUTH,VIC,145.192303,-37.848786,21104.0,Whitehorse - East,211.0,Melbourne - Outer East,R1
3134,HEATHWOOD,VIC,145.257929,-37.823058,21104.0,Whitehorse - East,211.0,Melbourne - Outer East,R1
3134,RINGWOOD,VIC,145.232557,-37.796091,21104.0,Whitehorse - East,211.0,Melbourne - Outer East,R1
3134,RINGWOOD NORTH,VIC,145.232557,-37.796091,21104.0,Whitehorse - East,211.0,Melbourne - Outer East,R1
3134,WARRANDYTE SOUTH,VIC,145.232557,-37.796091,21104.0,Whitehorse - East,211.0,Melbourne - Outer East,R1
3134,WARRANWOOD,VIC,145.232557,-37.796091,21104.0,Whitehorse - East,211.0,Melbourne - Outer East,R1
3135,BEDFORD ROAD,VIC,145.248209,-37.819594,21103.0,Maroondah,211.0,Melbourne - Outer East,R1
3135,HEATHMONT,VIC,145.248209,-37.819594,21103.0,Maroondah,211.0,Melbourne - Outer East,R1
3135,RINGWOOD EAST,VIC,145.248209,-37.819594,21103.0,Maroondah,211.0,Melbourne - Outer East,R1
3136,CROYDON,VIC,145.282396,-37.779876,21103.0,Maroondah,211.0,Melbourne - Outer East,R1
3136,CROYDON HILLS,VIC,145.282396,-37.779876,21103.0,Maroondah,211.0,Melbourne - Outer East,R1
3136,CROYDON NORTH,VIC,145.282396,-37.779876,21103.0,Maroondah,211.0,Melbourne - Outer East,R1
3136,CROYDON SOUTH,VIC,145.282396,-37.779876,21103.0,Maroondah,211.0,Melbourne - Outer East,R1
3137,KILSYTH,VIC,145.313346,-37.819364,21105.0,Yarra Ranges,211.0,Melbourne - Outer East,R1
3137,KILSYTH SOUTH,VIC,145.313346,-37.819364,21105.0,Yarra Ranges,211.0,Melbourne - Outer East,R1
3138,MOOROOLBARK,VIC,145.322794,-37.78391,21105.0,Yarra Ranges,211.0,Melbourne - Outer East,R1
3139,BEENAK,VIC,145.53266599999998,-37.814506,21201.0,Cardinia,212.0,Melbourne - South East,R3
3139,DON VALLEY,VIC,145.53266599999998,-37.814506,21201.0,Cardinia,212.0,Melbourne - South East,R3
3139,HODDLES CREEK,VIC,145.53266599999998,-37.814506,21201.0,Cardinia,212.0,Melbourne - South East,R3
3139,LAUNCHING PLACE,VIC,145.53266599999998,-37.814506,21201.0,Cardinia,212.0,Melbourne - South East,R3
3139,SEVILLE,VIC,145.53266599999998,-37.814506,21201.0,Cardinia,212.0,Melbourne - South East,R3
3139,SEVILLE EAST,VIC,145.53266599999998,-37.814506,21201.0,Cardinia,212.0,Melbourne - South East,R3
3139,WANDIN EAST,VIC,145.53266599999998,-37.814506,21201.0,Cardinia,212.0,Melbourne - South East,R3
3139,WANDIN NORTH,VIC,145.53266599999998,-37.814506,21201.0,Cardinia,212.0,Melbourne - South East,R3
3139,WOORI YALLOCK,VIC,145.53266599999998,-37.814506,21201.0,Cardinia,212.0,Melbourne - South East,R3
3139,YELLINGBO,VIC,145.53266599999998,-37.814506,21201.0,Cardinia,212.0,Melbourne - South East,R3
3140,LILYDALE,VIC,145.36318500000002,-37.759153999999995,21105.0,Yarra Ranges,211.0,Melbourne - Outer East,R1
3141,CHAPEL STREET NORTH,VIC,144.991264,-37.840678999999994,20606.0,Stonnington - West,206.0,Melbourne - Inner,R1
3141,SOUTH YARRA,VIC,144.991264,-37.840678999999994,20606.0,Stonnington - West,206.0,Melbourne - Inner,R1
3142,HAWKSBURN,VIC,145.017732,-37.84411,20701.0,Boroondara,207.0,Melbourne - Inner East,R1
3142,TOORAK,VIC,145.017732,-37.84411,20701.0,Boroondara,207.0,Melbourne - Inner East,R1
3143,ARMADALE,VIC,145.01939299999998,-37.858918,20606.0,Stonnington - West,206.0,Melbourne - Inner,R1
3143,ARMADALE NORTH,VIC,145.01939299999998,-37.858918,20606.0,Stonnington - West,206.0,Melbourne - Inner,R1
3144,KOOYONG,VIC,145.034127,-37.857442999999996,20804.0,Stonnington - East,208.0,Melbourne - Inner South,R1
3144,MALVERN,VIC,145.034127,-37.857442999999996,20804.0,Stonnington - East,208.0,Melbourne - Inner South,R1
3144,MALVERN NORTH,VIC,145.034127,-37.857442999999996,20804.0,Stonnington - East,208.0,Melbourne - Inner South,R1
3145,CAULFIELD EAST,VIC,145.049328,-37.873557,20804.0,Stonnington - East,208.0,Melbourne - Inner South,R1
3145,CENTRAL PARK,VIC,145.049328,-37.873557,20804.0,Stonnington - East,208.0,Melbourne - Inner South,R1
3145,DARLING,VIC,145.049328,-37.873557,20804.0,Stonnington - East,208.0,Melbourne - Inner South,R1
3145,MALVERN EAST,VIC,145.049328,-37.873557,20804.0,Stonnington - East,208.0,Melbourne - Inner South,R1
3146,GLEN IRIS,VIC,145.05783300000002,-37.857116,20804.0,Stonnington - East,208.0,Melbourne - Inner South,R1
3147,ASHBURTON,VIC,145.09294599999998,-37.867864000000004,21205.0,Monash,212.0,Melbourne - South East,R1
3147,ASHWOOD,VIC,145.09294599999998,-37.867864000000004,21205.0,Monash,212.0,Melbourne - South East,R1
3148,CHADSTONE,VIC,145.090149,-37.882562,21205.0,Monash,212.0,Melbourne - South East,R1
3148,CHADSTONE CENTRE,VIC,145.090149,-37.882562,21205.0,Monash,212.0,Melbourne - South East,R1
3148,HOLMESGLEN,VIC,145.090149,-37.882562,21205.0,Monash,212.0,Melbourne - South East,R1
3148,JORDANVILLE,VIC,145.112084,-37.8736,21205.0,Monash,212.0,Melbourne - South East,R1
3149,MOUNT WAVERLEY,VIC,145.128118,-37.880748,21205.0,Monash,212.0,Melbourne - South East,R1
3149,PINEWOOD,VIC,145.128118,-37.880748,21205.0,Monash,212.0,Melbourne - South East,R1
3149,SYNDAL,VIC,145.128118,-37.880748,21205.0,Monash,212.0,Melbourne - South East,R1
3150,BRANDON PARK,VIC,145.168834,-37.914383,21205.0,Monash,212.0,Melbourne - South East,R1
3150,GLEN WAVERLEY,VIC,145.170841,-37.876968,21205.0,Monash,212.0,Melbourne - South East,R1
3150,WHEELERS HILL,VIC,145.170841,-37.876968,21205.0,Monash,212.0,Melbourne - South East,R1
3151,BURWOOD EAST,VIC,145.151119,-37.85523,20703.0,Whitehorse - West,207.0,Melbourne - Inner East,R1
3151,BURWOOD HEIGHTS,VIC,145.151119,-37.85523,20703.0,Whitehorse - West,207.0,Melbourne - Inner East,R1
3152,KNOX CITY CENTRE,VIC,145.22169499999998,-37.864951,21101.0,Knox,211.0,Melbourne - Outer East,R1
3152,WANTIRNA,VIC,145.22169499999998,-37.864951,21101.0,Knox,211.0,Melbourne - Outer East,R1
3152,WANTIRNA SOUTH,VIC,145.22169499999998,-37.864951,21101.0,Knox,211.0,Melbourne - Outer East,R1
3153,BAYSWATER,VIC,145.270141,-37.845116,21103.0,Maroondah,211.0,Melbourne - Outer East,R1
3153,BAYSWATER NORTH,VIC,145.270141,-37.845116,21103.0,Maroondah,211.0,Melbourne - Outer East,R1
3154,THE BASIN,VIC,145.31784,-37.856009,21101.0,Knox,211.0,Melbourne - Outer East,R1
3155,BORONIA,VIC,145.284418,-37.861799,21101.0,Knox,211.0,Melbourne - Outer East,R1
3156,FERNTREE GULLY,VIC,145.292895,-37.917932,21202.0,Casey - North,212.0,Melbourne - South East,R1
3156,LYSTERFIELD,VIC,145.292895,-37.917932,21202.0,Casey - North,212.0,Melbourne - South East,R1
3156,LYSTERFIELD SOUTH,VIC,145.292895,-37.917932,21202.0,Casey - North,212.0,Melbourne - South East,R1
3156,MOUNTAIN GATE,VIC,145.292895,-37.917932,21202.0,Casey - North,212.0,Melbourne - South East,R1
3156,UPPER FERNTREE GULLY,VIC,145.292895,-37.917932,21202.0,Casey - North,212.0,Melbourne - South East,R1
3158,UPWEY,VIC,145.324468,-37.910077,21105.0,Yarra Ranges,211.0,Melbourne - Outer East,R1
3159,MENZIES CREEK,VIC,145.3892,-37.921894,21105.0,Yarra Ranges,211.0,Melbourne - Outer East,R1
3159,SELBY,VIC,145.3892,-37.921894,21105.0,Yarra Ranges,211.0,Melbourne - Outer East,R1
3160,BELGRAVE,VIC,145.350821,-37.935097,21105.0,Yarra Ranges,211.0,Melbourne - Outer East,R1
3160,BELGRAVE HEIGHTS,VIC,145.350821,-37.935097,21105.0,Yarra Ranges,211.0,Melbourne - Outer East,R1
3160,BELGRAVE SOUTH,VIC,145.350821,-37.935097,21105.0,Yarra Ranges,211.0,Melbourne - Outer East,R1
3160,TECOMA,VIC,145.350821,-37.935097,21105.0,Yarra Ranges,211.0,Melbourne - Outer East,R1
3161,CAULFIELD JUNCTION,VIC,145.019929,-37.873733,20802.0,Glen Eira,208.0,Melbourne - Inner South,R1
3161,CAULFIELD NORTH,VIC,145.019929,-37.873733,20802.0,Glen Eira,208.0,Melbourne - Inner South,R1
3162,CAULFIELD,VIC,145.023394,-37.892139,20802.0,Glen Eira,208.0,Melbourne - Inner South,R1
3162,CAULFIELD SOUTH,VIC,145.023394,-37.892139,20802.0,Glen Eira,208.0,Melbourne - Inner South,R1
3162,HOPETOUN GARDENS,VIC,145.023394,-37.892139,20802.0,Glen Eira,208.0,Melbourne - Inner South,R1
3163,CARNEGIE,VIC,145.05723700000001,-37.896497,20802.0,Glen Eira,208.0,Melbourne - Inner South,R1
3163,GLEN HUNTLY,VIC,145.05723700000001,-37.896497,20802.0,Glen Eira,208.0,Melbourne - Inner South,R1
3163,MURRUMBEENA,VIC,145.05723700000001,-37.896497,20802.0,Glen Eira,208.0,Melbourne - Inner South,R1
3165,BENTLEIGH EAST,VIC,145.059426,-37.922369,20802.0,Glen Eira,208.0,Melbourne - Inner South,R1
3165,COATESVILLE,VIC,145.059426,-37.922369,20802.0,Glen Eira,208.0,Melbourne - Inner South,R1
3166,HUGHESDALE,VIC,145.089719,-37.902805,21205.0,Monash,212.0,Melbourne - South East,R1
3166,HUNTINGDALE,VIC,145.089719,-37.902805,21205.0,Monash,212.0,Melbourne - South East,R1
3166,OAKLEIGH,VIC,145.089719,-37.902805,21205.0,Monash,212.0,Melbourne - South East,R1
3166,OAKLEIGH EAST,VIC,145.089719,-37.902805,21205.0,Monash,212.0,Melbourne - South East,R1
3167,OAKLEIGH SOUTH,VIC,145.087614,-37.923345,21205.0,Monash,212.0,Melbourne - South East,R1
3168,CLAYTON,VIC,145.12665,-37.91342,21205.0,Monash,212.0,Melbourne - South East,R1
3168,NOTTING HILL,VIC,145.12665,-37.91342,21205.0,Monash,212.0,Melbourne - South East,R1
3169,CLARINDA,VIC,145.115271,-37.945149,21204.0,Dandenong,212.0,Melbourne - South East,R1
3169,CLAYTON SOUTH,VIC,145.115271,-37.945149,21204.0,Dandenong,212.0,Melbourne - South East,R1
3170,MULGRAVE,VIC,145.16785900000002,-37.920945,21205.0,Monash,212.0,Melbourne - South East,R1
3170,WAVERLEY GARDENS,VIC,145.16785900000002,-37.920945,21205.0,Monash,212.0,Melbourne - South East,R1
3171,SANDOWN VILLAGE,VIC,145.15678300000002,-37.944608,21204.0,Dandenong,212.0,Melbourne - South East,R1
3171,SPRINGVALE,VIC,145.15678300000002,-37.944608,21204.0,Dandenong,212.0,Melbourne - South East,R1
3172,DINGLEY VILLAGE,VIC,145.13465,-37.975981,21204.0,Dandenong,212.0,Melbourne - South East,R1
3172,SPRINGVALE SOUTH,VIC,145.13465,-37.975981,21204.0,Dandenong,212.0,Melbourne - South East,R1
3173,KEYSBOROUGH,VIC,145.164863,-38.006771,21204.0,Dandenong,212.0,Melbourne - South East,R1
3174,NOBLE PARK,VIC,145.17877,-37.966218,21204.0,Dandenong,212.0,Melbourne - South East,R1
3174,NOBLE PARK EAST,VIC,145.17877,-37.966218,21204.0,Dandenong,212.0,Melbourne - South East,R1
3174,NOBLE PARK NORTH,VIC,145.17877,-37.966218,21204.0,Dandenong,212.0,Melbourne - South East,R1
3175,BANGHOLME,VIC,145.208504,-38.016114,21204.0,Dandenong,212.0,Melbourne - South East,R1
3175,DANDENONG,VIC,145.208504,-38.016114,21204.0,Dandenong,212.0,Melbourne - South East,R1
3175,DANDENONG EAST,VIC,145.208504,-38.016114,21204.0,Dandenong,212.0,Melbourne - South East,R1
3175,DANDENONG NORTH,VIC,145.208504,-38.016114,21204.0,Dandenong,212.0,Melbourne - South East,R1
3175,DANDENONG SOUTH,VIC,145.208504,-38.016114,21204.0,Dandenong,212.0,Melbourne - South East,R1
3175,DUNEARN,VIC,145.208504,-38.016114,21204.0,Dandenong,212.0,Melbourne - South East,R1
3177,DOVETON,VIC,145.23746200000002,-37.990984999999995,21202.0,Casey - North,212.0,Melbourne - South East,R1
3177,EUMEMMERRING,VIC,145.23746200000002,-37.990984999999995,21202.0,Casey - North,212.0,Melbourne - South East,R1
3178,ROWVILLE,VIC,145.24158899999998,-37.924431,21101.0,Knox,211.0,Melbourne - Outer East,R1
3179,SCORESBY,VIC,145.222634,-37.897137,21101.0,Knox,211.0,Melbourne - Outer East,R1
3180,KNOXFIELD,VIC,145.246731,-37.893263,21101.0,Knox,211.0,Melbourne - Outer East,R1
3181,PRAHRAN,VIC,144.995504,-37.854683,20606.0,Stonnington - West,206.0,Melbourne - Inner,R1
3181,PRAHRAN EAST,VIC,144.995504,-37.854683,20606.0,Stonnington - West,206.0,Melbourne - Inner,R1
3181,WINDSOR,VIC,144.995504,-37.854683,20606.0,Stonnington - West,206.0,Melbourne - Inner,R1
3182,ST KILDA,VIC,144.979478,-37.865322,20605.0,Port Phillip,206.0,Melbourne - Inner,R1
3182,ST KILDA WEST,VIC,144.979478,-37.865322,20605.0,Port Phillip,206.0,Melbourne - Inner,R1
3183,BALACLAVA,VIC,144.99902600000001,-37.869071999999996,20802.0,Glen Eira,208.0,Melbourne - Inner South,R1
3183,ST KILDA EAST,VIC,144.99902600000001,-37.869071999999996,20802.0,Glen Eira,208.0,Melbourne - Inner South,R1
3184,BRIGHTON ROAD,VIC,144.984034,-37.881414,20605.0,Port Phillip,206.0,Melbourne - Inner,R1
3184,ELWOOD,VIC,144.984034,-37.881414,20605.0,Port Phillip,206.0,Melbourne - Inner,R1
3185,ELSTERNWICK,VIC,145.002571,-37.891841,20802.0,Glen Eira,208.0,Melbourne - Inner South,R1
3185,GARDENVALE,VIC,145.002571,-37.891841,20802.0,Glen Eira,208.0,Melbourne - Inner South,R1
3185,RIPPONLEA,VIC,145.002571,-37.891841,20802.0,Glen Eira,208.0,Melbourne - Inner South,R1
3186,BRIGHTON,VIC,144.996329,-37.915065999999996,20801.0,Bayside,208.0,Melbourne - Inner South,R1
3186,BRIGHTON NORTH,VIC,144.996329,-37.915065999999996,20801.0,Bayside,208.0,Melbourne - Inner South,R1
3186,DENDY,VIC,144.996329,-37.915065999999996,20801.0,Bayside,208.0,Melbourne - Inner South,R1
3187,BRIGHTON EAST,VIC,145.013593,-37.925371000000005,20802.0,Glen Eira,208.0,Melbourne - Inner South,R1
3187,NORTH ROAD,VIC,145.013593,-37.925371000000005,20802.0,Glen Eira,208.0,Melbourne - Inner South,R1
3188,HAMPTON,VIC,145.007238,-37.938889,20801.0,Bayside,208.0,Melbourne - Inner South,R1
3188,HAMPTON EAST,VIC,145.007238,-37.938889,20801.0,Bayside,208.0,Melbourne - Inner South,R1
3188,HAMPTON NORTH,VIC,145.007238,-37.938889,20801.0,Bayside,208.0,Melbourne - Inner South,R1
3189,MOORABBIN,VIC,145.047802,-37.942021000000004,20803.0,Kingston,208.0,Melbourne - Inner South,R1
3189,WISHART,VIC,145.047802,-37.942021000000004,20803.0,Kingston,208.0,Melbourne - Inner South,R1
3190,HIGHETT,VIC,145.038147,-37.951394,20803.0,Kingston,208.0,Melbourne - Inner South,R1
3191,SANDRINGHAM,VIC,145.013472,-37.956585,20801.0,Bayside,208.0,Melbourne - Inner South,R1
3192,CHELTENHAM,VIC,145.0623,-37.965655,20803.0,Kingston,208.0,Melbourne - Inner South,R1
3192,CHELTENHAM EAST,VIC,145.0623,-37.965655,20803.0,Kingston,208.0,Melbourne - Inner South,R1
3192,CHELTENHAM NORTH,VIC,145.0623,-37.965655,20803.0,Kingston,208.0,Melbourne - Inner South,R1
3192,SOUTHLAND CENTRE,VIC,145.0623,-37.965655,20803.0,Kingston,208.0,Melbourne - Inner South,R1
3193,BEAUMARIS,VIC,145.031561,-37.978698,20801.0,Bayside,208.0,Melbourne - Inner South,R1
3193,BLACK ROCK,VIC,145.031561,-37.978698,20801.0,Bayside,208.0,Melbourne - Inner South,R1
3193,BLACK ROCK NORTH,VIC,145.031561,-37.978698,20801.0,Bayside,208.0,Melbourne - Inner South,R1
3193,CROMER,VIC,145.031561,-37.978698,20801.0,Bayside,208.0,Melbourne - Inner South,R1
3194,MENTONE,VIC,145.06735600000002,-37.985059,20803.0,Kingston,208.0,Melbourne - Inner South,R1
3194,MENTONE EAST,VIC,145.06735600000002,-37.985059,20803.0,Kingston,208.0,Melbourne - Inner South,R1
3194,MOORABBIN AIRPORT,VIC,145.06735600000002,-37.985059,20803.0,Kingston,208.0,Melbourne - Inner South,R1
3195,ASPENDALE,VIC,145.104105,-38.007024,20803.0,Kingston,208.0,Melbourne - Inner South,R1
3195,ASPENDALE GARDENS,VIC,145.104105,-38.007024,20803.0,Kingston,208.0,Melbourne - Inner South,R1
3195,BRAESIDE,VIC,145.104105,-38.007024,20803.0,Kingston,208.0,Melbourne - Inner South,R1
3195,MORDIALLOC,VIC,145.104105,-38.007024,20803.0,Kingston,208.0,Melbourne - Inner South,R1
3195,PARKDALE,VIC,145.104105,-38.007024,20803.0,Kingston,208.0,Melbourne - Inner South,R1
3195,WATERWAYS,VIC,145.104105,-38.007024,20803.0,Kingston,208.0,Melbourne - Inner South,R1
3196,BONBEACH,VIC,145.12276200000002,-38.046479,20803.0,Kingston,208.0,Melbourne - Inner South,R1
3196,CHELSEA,VIC,145.12276200000002,-38.046479,20803.0,Kingston,208.0,Melbourne - Inner South,R1
3196,CHELSEA HEIGHTS,VIC,145.12276200000002,-38.046479,20803.0,Kingston,208.0,Melbourne - Inner South,R1
3196,EDITHVALE,VIC,145.12276200000002,-38.046479,20803.0,Kingston,208.0,Melbourne - Inner South,R1
3202,HEATHERTON,VIC,145.09269799999998,-37.960555,20803.0,Kingston,208.0,Melbourne - Inner South,R1
3204,BENTLEIGH,VIC,145.036783,-37.916956,20802.0,Glen Eira,208.0,Melbourne - Inner South,R1
3204,MCKINNON,VIC,145.036783,-37.916956,20802.0,Glen Eira,208.0,Melbourne - Inner South,R1
3204,ORMOND,VIC,145.036783,-37.916956,20802.0,Glen Eira,208.0,Melbourne - Inner South,R1
3204,PATTERSON,VIC,145.036783,-37.916956,20802.0,Glen Eira,208.0,Melbourne - Inner South,R1
3205,SOUTH MELBOURNE,VIC,144.958176,-37.831693,20605.0,Port Phillip,206.0,Melbourne - Inner,R1
3206,ALBERT PARK,VIC,144.95086,-37.846534000000005,20605.0,Port Phillip,206.0,Melbourne - Inner,R1
3206,MIDDLE PARK,VIC,144.95086,-37.846534000000005,20605.0,Port Phillip,206.0,Melbourne - Inner,R1
3207,GARDEN CITY,VIC,144.91804399999998,-37.832179,21302.0,Hobsons Bay,213.0,Melbourne - West,R1
3207,PORT MELBOURNE,VIC,144.91804399999998,-37.832179,21302.0,Hobsons Bay,213.0,Melbourne - West,R1
3211,LITTLE RIVER,VIC,144.498479,-37.943585999999996,21305.0,Wyndham,213.0,Melbourne - West,R2
3335,BONNIE BROOK,VIC,144.6698898,-37.69608887,21304.0,Melton - Bacchus Marsh,213.0,Melbourne - West,R1
3335,GRANGEFIELDS,VIC,144.6393305,-37.706900299999994,21304.0,Melton - Bacchus Marsh,213.0,Melbourne - West,R1
3335,PLUMPTON,VIC,144.699671,-37.724140999999996,21304.0,Melton - Bacchus Marsh,213.0,Melbourne - West,R1
3335,ROCKBANK,VIC,144.699671,-37.724140999999996,21304.0,Melton - Bacchus Marsh,213.0,Melbourne - West,R1
3335,THORNHILL PARK,VIC,144.624896,-37.73029166,21304.0,Melton - Bacchus Marsh,213.0,Melbourne - West,R1
3337,HARKNESS,VIC,144.5462424,-37.65724033,21304.0,Melton - Bacchus Marsh,213.0,Melbourne - West,R1
3337,KURUNJANG,VIC,144.571458,-37.656057000000004,21304.0,Melton - Bacchus Marsh,213.0,Melbourne - West,R1
3337,MELTON,VIC,144.571458,-37.656057000000004,21304.0,Melton - Bacchus Marsh,213.0,Melbourne - West,R1
3337,MELTON WEST,VIC,144.571458,-37.656057000000004,21304.0,Melton - Bacchus Marsh,213.0,Melbourne - West,R1
3337,TOOLERN VALE,VIC,144.571458,-37.656057000000004,21304.0,Melton - Bacchus Marsh,213.0,Melbourne - West,R1
3338,BROOKFIELD,VIC,144.571033,-37.705529,21305.0,Wyndham,213.0,Melbourne - West,R1
3338,COBBLEBANK,VIC,144.6008548,-37.70732038,21305.0,Wyndham,213.0,Melbourne - West,R1
3338,EXFORD,VIC,144.571033,-37.705529,21305.0,Wyndham,213.0,Melbourne - West,R1
3338,EYNESBURY,VIC,144.571033,-37.705529,21305.0,Wyndham,213.0,Melbourne - West,R1
3338,MELTON SOUTH,VIC,144.571033,-37.705529,21305.0,Wyndham,213.0,Melbourne - West,R1
3338,STRATHTULLOH,VIC,144.59690940000002,-37.73398997,21305.0,Wyndham,213.0,Melbourne - West,R1
3338,WEIR VIEWS,VIC,144.56833669999997,-37.72870467,21305.0,Wyndham,213.0,Melbourne - West,R1
3340,BACCHUS MARSH,VIC,144.394442,-37.787135,21304.0,Melton - Bacchus Marsh,213.0,Melbourne - West,R2
3340,BALLIANG,VIC,144.394442,-37.787135,21304.0,Melton - Bacchus Marsh,213.0,Melbourne - West,R2
3340,BALLIANG EAST,VIC,144.394442,-37.787135,21304.0,Melton - Bacchus Marsh,213.0,Melbourne - West,R2
3340,COIMADAI,VIC,144.394442,-37.787135,21304.0,Melton - Bacchus Marsh,213.0,Melbourne - West,R2
3340,DARLEY,VIC,144.394442,-37.787135,21304.0,Melton - Bacchus Marsh,213.0,Melbourne - West,R2
3340,GLENMORE,VIC,144.394442,-37.787135,21304.0,Melton - Bacchus Marsh,213.0,Melbourne - West,R2
3340,HOPETOUN PARK,VIC,144.394442,-37.787135,21304.0,Melton - Bacchus Marsh,213.0,Melbourne - West,R2
3340,LONG FOREST,VIC,144.394442,-37.787135,21304.0,Melton - Bacchus Marsh,213.0,Melbourne - West,R2
3340,MADDINGLEY,VIC,144.394442,-37.787135,21304.0,Melton - Bacchus Marsh,213.0,Melbourne - West,R2
3340,MERRIMU,VIC,144.394442,-37.787135,21304.0,Melton - Bacchus Marsh,213.0,Melbourne - West,R2
3340,PARWAN,VIC,144.394442,-37.787135,21304.0,Melton - Bacchus Marsh,213.0,Melbourne - West,R2
3340,ROWSLEY,VIC,144.394442,-37.787135,21304.0,Melton - Bacchus Marsh,213.0,Melbourne - West,R2
3340,STAUGHTON VALE,VIC,144.2550519,-37.84038931,21304.0,Melton - Bacchus Marsh,213.0,Melbourne - West,R2
3341,DALES CREEK,VIC,144.308232,-37.573710999999996,21304.0,Melton - Bacchus Marsh,213.0,Melbourne - West,R3
3341,GREENDALE,VIC,144.308232,-37.573710999999996,21304.0,Melton - Bacchus Marsh,213.0,Melbourne - West,R3
3341,KOROBEIT,VIC,144.308232,-37.573710999999996,21304.0,Melton - Bacchus Marsh,213.0,Melbourne - West,R3
3341,MYRNIONG,VIC,144.308232,-37.573710999999996,21304.0,Melton - Bacchus Marsh,213.0,Melbourne - West,R3
3341,PENTLAND HILLS,VIC,144.308232,-37.573710999999996,21304.0,Melton - Bacchus Marsh,213.0,Melbourne - West,R3
3427,DIGGERS REST,VIC,144.707974,-37.643461,21304.0,Melton - Bacchus Marsh,213.0,Melbourne - West,R1
3428,BULLA,VIC,144.81149399999998,-37.591069,21005.0,Tullamarine - Broadmeadows,210.0,Melbourne - North West,R1
3429,SUNBURY,VIC,144.728973,-37.56762,21004.0,Sunbury,210.0,Melbourne - North West,R1
3429,WILDWOOD,VIC,144.728973,-37.56762,21004.0,Sunbury,210.0,Melbourne - North West,R1
3430,CLARKEFIELD,VIC,144.806632,-37.494056,21004.0,Sunbury,210.0,Melbourne - North West,R3
3431,RIDDELLS CREEK,VIC,144.69201999999999,-37.474551,21004.0,Sunbury,210.0,Melbourne - North West,R3
3432,BOLINDA,VIC,144.792581,-37.448454999999996,21002.0,Macedon Ranges,210.0,Melbourne - North West,R3
3434,CHEROKEE,VIC,144.750796,-37.35388,21002.0,Macedon Ranges,210.0,Melbourne - North West,R3
3434,KERRIE,VIC,144.750796,-37.35388,21002.0,Macedon Ranges,210.0,Melbourne - North West,R3
3434,ROMSEY,VIC,144.750796,-37.35388,21002.0,Macedon Ranges,210.0,Melbourne - North West,R3
3434,SPRINGFIELD,VIC,144.750796,-37.35388,21002.0,Macedon Ranges,210.0,Melbourne - North West,R3
3435,BENLOCH,VIC,144.743358,-37.179453,21002.0,Macedon Ranges,210.0,Melbourne - North West,R3
3435,GOLDIE,VIC,144.743358,-37.179453,21002.0,Macedon Ranges,210.0,Melbourne - North West,R3
3435,LANCEFIELD,VIC,144.743358,-37.179453,21002.0,Macedon Ranges,210.0,Melbourne - North West,R3
3435,NULLA VALE,VIC,144.743358,-37.179453,21002.0,Macedon Ranges,210.0,Melbourne - North West,R3
3437,BULLENGAROOK,VIC,144.513018,-37.501619,21002.0,Macedon Ranges,210.0,Melbourne - North West,R3
3437,GISBORNE,VIC,144.513018,-37.501619,21002.0,Macedon Ranges,210.0,Melbourne - North West,R3
3437,GISBORNE SOUTH,VIC,144.513018,-37.501619,21002.0,Macedon Ranges,210.0,Melbourne - North West,R3
3438,NEW GISBORNE,VIC,144.602032,-37.457528,21002.0,Macedon Ranges,210.0,Melbourne - North West,R3
3440,MACEDON,VIC,144.546151,-37.413377000000004,21002.0,Macedon Ranges,210.0,Melbourne - North West,R3
3441,MOUNT MACEDON,VIC,144.603892,-37.399224,21002.0,Macedon Ranges,210.0,Melbourne - North West,R3
3442,ASHBOURNE,VIC,144.548846,-37.330661,21002.0,Macedon Ranges,210.0,Melbourne - North West,R3
3442,CADELLO,VIC,144.548846,-37.330661,21002.0,Macedon Ranges,210.0,Melbourne - North West,R3
3442,CARLSRUHE,VIC,144.548846,-37.330661,21002.0,Macedon Ranges,210.0,Melbourne - North West,R3
3442,COBAW,VIC,144.548846,-37.330661,21002.0,Macedon Ranges,210.0,Melbourne - North West,R3
3442,HANGING ROCK,VIC,144.548846,-37.330661,21002.0,Macedon Ranges,210.0,Melbourne - North West,R3
3442,HESKET,VIC,144.548846,-37.330661,21002.0,Macedon Ranges,210.0,Melbourne - North West,R3
3442,NEWHAM,VIC,144.548846,-37.330661,21002.0,Macedon Ranges,210.0,Melbourne - North West,R3
3442,ROCHFORD,VIC,144.548846,-37.330661,21002.0,Macedon Ranges,210.0,Melbourne - North West,R3
3442,WOODEND,VIC,144.548846,-37.330661,21002.0,Macedon Ranges,210.0,Melbourne - North West,R3
3442,WOODEND NORTH,VIC,144.548846,-37.330661,21002.0,Macedon Ranges,210.0,Melbourne - North West,R3
3658,BROADFORD,VIC,145.111854,-37.241401,20904.0,Whittlesea - Wallan,209.0,Melbourne - North East,R3
3658,CLONBINANE,VIC,145.111854,-37.241401,20904.0,Whittlesea - Wallan,209.0,Melbourne - North East,R3
3658,FLOWERDALE,VIC,145.111854,-37.241401,20904.0,Whittlesea - Wallan,209.0,Melbourne - North East,R3
3658,HAZELDENE,VIC,145.111854,-37.241401,20904.0,Whittlesea - Wallan,209.0,Melbourne - North East,R3
3658,REEDY CREEK,VIC,145.111854,-37.241401,20904.0,Whittlesea - Wallan,209.0,Melbourne - North East,R3
3658,STRATH CREEK,VIC,145.111854,-37.241401,20904.0,Whittlesea - Wallan,209.0,Melbourne - North East,R3
3658,SUGARLOAF CREEK,VIC,145.02770180000002,-37.12839823,20904.0,Whittlesea - Wallan,209.0,Melbourne - North East,R3
3658,SUNDAY CREEK,VIC,145.111854,-37.241401,20904.0,Whittlesea - Wallan,209.0,Melbourne - North East,R3
3658,TYAAK,VIC,145.111854,-37.241401,20904.0,Whittlesea - Wallan,209.0,Melbourne - North East,R3
3658,WATERFORD PARK,VIC,145.111854,-37.241401,20904.0,Whittlesea - Wallan,209.0,Melbourne - North East,R3
3750,WOLLERT,VIC,145.005578,-37.596078000000006,20904.0,Whittlesea - Wallan,209.0,Melbourne - North East,R3
3751,WOODSTOCK,VIC,145.052904,-37.554655,20904.0,Whittlesea - Wallan,209.0,Melbourne - North East,R3
3752,MORANG SOUTH,VIC,145.074353,-37.619102000000005,20904.0,Whittlesea - Wallan,209.0,Melbourne - North East,R3
3752,SOUTH MORANG,VIC,145.074353,-37.619102000000005,20904.0,Whittlesea - Wallan,209.0,Melbourne - North East,R3
3753,BEVERIDGE,VIC,144.95951200000002,-37.476473999999996,20904.0,Whittlesea - Wallan,209.0,Melbourne - North East,R3
3754,DOREEN,VIC,145.112985,-37.593554,20904.0,Whittlesea - Wallan,209.0,Melbourne - North East,R3
3754,MERNDA,VIC,145.112985,-37.593554,20904.0,Whittlesea - Wallan,209.0,Melbourne - North East,R3
3755,YAN YEAN,VIC,145.14203500000002,-37.563905,20904.0,Whittlesea - Wallan,209.0,Melbourne - North East,R3
3756,CHINTIN,VIC,144.956641,-37.41233,21002.0,Macedon Ranges,210.0,Melbourne - North West,R3
3756,DARRAWEIT GUIM,VIC,144.956641,-37.41233,21002.0,Macedon Ranges,210.0,Melbourne - North West,R3
3756,HIDDEN VALLEY,VIC,144.956641,-37.41233,21002.0,Macedon Ranges,210.0,Melbourne - North West,R3
3756,UPPER PLENTY,VIC,144.956641,-37.41233,21002.0,Macedon Ranges,210.0,Melbourne - North West,R3
3756,WALLAN,VIC,144.956641,-37.41233,21002.0,Macedon Ranges,210.0,Melbourne - North West,R3
3756,WALLAN EAST,VIC,144.956641,-37.41233,21002.0,Macedon Ranges,210.0,Melbourne - North West,R3
3757,BRUCES CREEK,VIC,145.182221,-37.469784000000004,20904.0,Whittlesea - Wallan,209.0,Melbourne - North East,R3
3757,EDEN PARK,VIC,145.182221,-37.469784000000004,20904.0,Whittlesea - Wallan,209.0,Melbourne - North East,R3
3757,HUMEVALE,VIC,145.182221,-37.469784000000004,20904.0,Whittlesea - Wallan,209.0,Melbourne - North East,R3
3757,KINGLAKE CENTRAL,VIC,145.182221,-37.469784000000004,20904.0,Whittlesea - Wallan,209.0,Melbourne - North East,R3
3757,KINGLAKE WEST,VIC,145.182221,-37.469784000000004,20904.0,Whittlesea - Wallan,209.0,Melbourne - North East,R3
3757,PHEASANT CREEK,VIC,145.182221,-37.469784000000004,20904.0,Whittlesea - Wallan,209.0,Melbourne - North East,R3
3757,WHITTLESEA,VIC,145.182221,-37.469784000000004,20904.0,Whittlesea - Wallan,209.0,Melbourne - North East,R3
3758,HEATHCOTE JUNCTION,VIC,145.052552,-37.354647,20904.0,Whittlesea - Wallan,209.0,Melbourne - North East,R3
3758,WANDONG,VIC,145.052552,-37.354647,20904.0,Whittlesea - Wallan,209.0,Melbourne - North East,R3
3759,PANTON HILL,VIC,145.247277,-37.650385,20903.0,Nillumbik - Kinglake,209.0,Melbourne - North East,R3
3760,SMITHS GULLY,VIC,145.288073,-37.624928999999995,20903.0,Nillumbik - Kinglake,209.0,Melbourne - North East,R3
3763,KINGLAKE,VIC,145.353378,-37.521863,20903.0,Nillumbik - Kinglake,209.0,Melbourne - North East,R3
3763,MOUNT SLIDE,VIC,145.353378,-37.521863,20903.0,Nillumbik - Kinglake,209.0,Melbourne - North East,R3
3764,FORBES,VIC,144.900644,-37.263736,21002.0,Macedon Ranges,210.0,Melbourne - North West,R3
3764,GLENAROUA,VIC,144.900644,-37.263736,21002.0,Macedon Ranges,210.0,Melbourne - North West,R3
3764,HIGH CAMP,VIC,144.900644,-37.263736,21002.0,Macedon Ranges,210.0,Melbourne - North West,R3
3764,KILMORE,VIC,144.900644,-37.263736,21002.0,Macedon Ranges,210.0,Melbourne - North West,R3
3764,KILMORE EAST,VIC,144.900644,-37.263736,21002.0,Macedon Ranges,210.0,Melbourne - North West,R3
3764,MORANDING,VIC,144.900644,-37.263736,21002.0,Macedon Ranges,210.0,Melbourne - North West,R3
3764,TANTARABOO,VIC,144.900644,-37.263736,21002.0,Macedon Ranges,210.0,Melbourne - North West,R3
3764,WILLOWMAVIN,VIC,144.900644,-37.263736,21002.0,Macedon Ranges,210.0,Melbourne - North West,R3
3765,MONTROSE,VIC,145.346621,-37.814771,21105.0,Yarra Ranges,211.0,Melbourne - Outer East,R3
3766,KALORAMA,VIC,145.384955,-37.817818,21105.0,Yarra Ranges,211.0,Melbourne - Outer East,R3
3767,MOUNT DANDENONG,VIC,145.347505,-37.839387,21105.0,Yarra Ranges,211.0,Melbourne - Outer East,R3
3770,COLDSTREAM,VIC,145.41600400000002,-37.708784,21105.0,Yarra Ranges,211.0,Melbourne - Outer East,R3
3770,GRUYERE,VIC,145.41600400000002,-37.708784,21105.0,Yarra Ranges,211.0,Melbourne - Outer East,R3
3770,YERING,VIC,145.41600400000002,-37.708784,21105.0,Yarra Ranges,211.0,Melbourne - Outer East,R3
3775,CHRISTMAS HILLS,VIC,145.365993,-37.642852000000005,21105.0,Yarra Ranges,211.0,Melbourne - Outer East,R3
3775,DIXONS CREEK,VIC,145.365993,-37.642852000000005,21105.0,Yarra Ranges,211.0,Melbourne - Outer East,R3
3775,STEELS CREEK,VIC,145.365993,-37.642852000000005,21105.0,Yarra Ranges,211.0,Melbourne - Outer East,R3
3775,TARRAWARRA,VIC,145.365993,-37.642852000000005,21105.0,Yarra Ranges,211.0,Melbourne - Outer East,R3
3775,YARRA GLEN,VIC,145.365993,-37.642852000000005,21105.0,Yarra Ranges,211.0,Melbourne - Outer East,R3
3777,BADGER CREEK,VIC,145.513804,-37.606088,21105.0,Yarra Ranges,211.0,Melbourne - Outer East,R3
3777,CASTELLA,VIC,145.513804,-37.606088,21105.0,Yarra Ranges,211.0,Melbourne - Outer East,R3
3777,CHUM CREEK,VIC,145.513804,-37.606088,21105.0,Yarra Ranges,211.0,Melbourne - Outer East,R3
3777,HEALESVILLE,VIC,145.513804,-37.606088,21105.0,Yarra Ranges,211.0,Melbourne - Outer East,R3
3777,MOUNT TOOLEBEWONG,VIC,145.513804,-37.606088,21105.0,Yarra Ranges,211.0,Melbourne - Outer East,R3
3777,TOOLANGI,VIC,145.513804,-37.606088,21105.0,Yarra Ranges,211.0,Melbourne - Outer East,R3
3778,FERNSHAW,VIC,145.62301100000002,-37.537492,21105.0,Yarra Ranges,211.0,Melbourne - Outer East,R3
3778,NARBETHONG,VIC,145.62301100000002,-37.537492,21105.0,Yarra Ranges,211.0,Melbourne - Outer East,R3
3781,COCKATOO,VIC,145.487862,-37.938471,21201.0,Cardinia,212.0,Melbourne - South East,R3
3781,MOUNT BURNETT,VIC,145.487862,-37.938471,21201.0,Cardinia,212.0,Melbourne - South East,R3
3781,NANGANA,VIC,145.487862,-37.938471,21201.0,Cardinia,212.0,Melbourne - South East,R3
3782,AVONSLEIGH,VIC,145.433024,-37.938068,21201.0,Cardinia,212.0,Melbourne - South East,R3
3782,CLEMATIS,VIC,145.433024,-37.938068,21201.0,Cardinia,212.0,Melbourne - South East,R3
3782,EMERALD,VIC,145.433024,-37.938068,21201.0,Cardinia,212.0,Melbourne - South East,R3
3782,MACCLESFIELD,VIC,145.433024,-37.938068,21201.0,Cardinia,212.0,Melbourne - South East,R3
3783,GEMBROOK,VIC,145.596576,-37.947379,21201.0,Cardinia,212.0,Melbourne - South East,R3
3785,TREMONT,VIC,145.316734,-37.885138,21105.0,Yarra Ranges,211.0,Melbourne - Outer East,R3
3786,FERNY CREEK,VIC,145.332431,-37.878188,21105.0,Yarra Ranges,211.0,Melbourne - Outer East,R3
3787,SASSAFRAS,VIC,145.350888,-37.866786,21105.0,Yarra Ranges,211.0,Melbourne - Outer East,R3
3787,SASSAFRAS GULLY,VIC,145.350888,-37.866786,21105.0,Yarra Ranges,211.0,Melbourne - Outer East,R3
3788,OLINDA,VIC,145.377128,-37.848036,21105.0,Yarra Ranges,211.0,Melbourne - Outer East,R3
3789,SHERBROOKE,VIC,145.357336,-37.889767,21105.0,Yarra Ranges,211.0,Melbourne - Outer East,R3
3791,KALLISTA,VIC,145.37962199999998,-37.896916999999995,21105.0,Yarra Ranges,211.0,Melbourne - Outer East,R3
3792,THE PATCH,VIC,145.405388,-37.89424,21105.0,Yarra Ranges,211.0,Melbourne - Outer East,R3
3793,MONBULK,VIC,145.429715,-37.874533,21105.0,Yarra Ranges,211.0,Melbourne - Outer East,R3
3795,SILVAN,VIC,145.43031100000002,-37.836663,21105.0,Yarra Ranges,211.0,Melbourne - Outer East,R3
3796,MOUNT EVELYN,VIC,145.384922,-37.786977,21105.0,Yarra Ranges,211.0,Melbourne - Outer East,R3
3797,GILDEROY,VIC,145.786343,-37.867809,21105.0,Yarra Ranges,211.0,Melbourne - Outer East,R3
3797,GLADYSDALE,VIC,145.786343,-37.867809,21105.0,Yarra Ranges,211.0,Melbourne - Outer East,R3
3797,POWELLTOWN,VIC,145.786343,-37.867809,21105.0,Yarra Ranges,211.0,Melbourne - Outer East,R3
3797,THREE BRIDGES,VIC,145.786343,-37.867809,21105.0,Yarra Ranges,211.0,Melbourne - Outer East,R3
3797,YARRA JUNCTION,VIC,145.786343,-37.867809,21105.0,Yarra Ranges,211.0,Melbourne - Outer East,R3
3799,BIG PATS CREEK,VIC,145.818512,-37.727565999999996,21105.0,Yarra Ranges,211.0,Melbourne - Outer East,R3
3799,EAST WARBURTON,VIC,145.818512,-37.727565999999996,21105.0,Yarra Ranges,211.0,Melbourne - Outer East,R3
3799,MCMAHONS CREEK,VIC,145.818512,-37.727565999999996,21105.0,Yarra Ranges,211.0,Melbourne - Outer East,R3
3799,MILLGROVE,VIC,145.818512,-37.727565999999996,21105.0,Yarra Ranges,211.0,Melbourne - Outer East,R3
3799,REEFTON,VIC,145.818512,-37.727565999999996,21105.0,Yarra Ranges,211.0,Melbourne - Outer East,R3
3799,WARBURTON,VIC,145.818512,-37.727565999999996,21105.0,Yarra Ranges,211.0,Melbourne - Outer East,R3
3799,WESBURN,VIC,145.818512,-37.727565999999996,21105.0,Yarra Ranges,211.0,Melbourne - Outer East,R3
3800,MONASH UNIVERSITY,VIC,145.134935,-37.910545,21205.0,Monash,212.0,Melbourne - South East,R1
3802,ENDEAVOUR HILLS,VIC,145.255599,-37.971763,21202.0,Casey - North,212.0,Melbourne - South East,R1
3803,HALLAM,VIC,145.265524,-38.009434999999996,21202.0,Casey - North,212.0,Melbourne - South East,R1
3804,NARRE WARREN EAST,VIC,145.325994,-37.980059000000004,21202.0,Casey - North,212.0,Melbourne - South East,R1
3804,NARRE WARREN NORTH,VIC,145.325994,-37.980059000000004,21202.0,Casey - North,212.0,Melbourne - South East,R1
3805,FOUNTAIN GATE,VIC,145.30419799999999,-38.037026000000004,21203.0,Casey - South,212.0,Melbourne - South East,R1
3805,NARRE WARREN,VIC,145.30419799999999,-38.037026000000004,21203.0,Casey - South,212.0,Melbourne - South East,R1
3805,NARRE WARREN SOUTH,VIC,145.30419799999999,-38.037026000000004,21203.0,Casey - South,212.0,Melbourne - South East,R1
3806,BERWICK,VIC,145.34948799999998,-38.025017999999996,21203.0,Casey - South,212.0,Melbourne - South East,R1
3806,HARKAWAY,VIC,145.34948799999998,-38.025017999999996,21203.0,Casey - South,212.0,Melbourne - South East,R1
3807,BEACONSFIELD,VIC,145.371635,-38.048316,21202.0,Casey - North,212.0,Melbourne - South East,R1
3807,GUYS HILL,VIC,145.371635,-38.048316,21202.0,Casey - North,212.0,Melbourne - South East,R1
3808,BEACONSFIELD UPPER,VIC,145.42327,-38.002518,21201.0,Cardinia,212.0,Melbourne - South East,R1
3808,DEWHURST,VIC,145.42327,-38.002518,21201.0,Cardinia,212.0,Melbourne - South East,R1
3809,OFFICER,VIC,145.406887,-38.069094,21201.0,Cardinia,212.0,Melbourne - South East,R3
3809,OFFICER SOUTH,VIC,145.406887,-38.069094,21201.0,Cardinia,212.0,Melbourne - South East,R3
3810,PAKENHAM,VIC,145.472514,-38.04658,21201.0,Cardinia,212.0,Melbourne - South East,R3
3810,PAKENHAM SOUTH,VIC,145.472514,-38.04658,21201.0,Cardinia,212.0,Melbourne - South East,R3
3810,PAKENHAM UPPER,VIC,145.472514,-38.04658,21201.0,Cardinia,212.0,Melbourne - South East,R3
3810,RYTHDALE,VIC,145.472514,-38.04658,21201.0,Cardinia,212.0,Melbourne - South East,R3
3812,MARYKNOLL,VIC,145.565304,-38.070135,21201.0,Cardinia,212.0,Melbourne - South East,R3
3812,NAR NAR GOON,VIC,145.565304,-38.070135,21201.0,Cardinia,212.0,Melbourne - South East,R3
3812,NAR NAR GOON NORTH,VIC,145.565304,-38.070135,21201.0,Cardinia,212.0,Melbourne - South East,R3
3813,TYNONG,VIC,145.63433899999998,-38.064252,21201.0,Cardinia,212.0,Melbourne - South East,R3
3813,TYNONG NORTH,VIC,145.63433899999998,-38.064252,21201.0,Cardinia,212.0,Melbourne - South East,R3
3814,CORA LYNN,VIC,145.669112,-38.10718,21201.0,Cardinia,212.0,Melbourne - South East,R3
3814,GARFIELD,VIC,145.669112,-38.10718,21201.0,Cardinia,212.0,Melbourne - South East,R3
3814,GARFIELD NORTH,VIC,145.669112,-38.10718,21201.0,Cardinia,212.0,Melbourne - South East,R3
3814,VERVALE,VIC,145.669112,-38.10718,21201.0,Cardinia,212.0,Melbourne - South East,R3
3815,BUNYIP,VIC,145.726311,-38.01378,21201.0,Cardinia,212.0,Melbourne - South East,R3
3815,BUNYIP NORTH,VIC,145.726311,-38.01378,21201.0,Cardinia,212.0,Melbourne - South East,R3
3815,IONA,VIC,145.726311,-38.01378,21201.0,Cardinia,212.0,Melbourne - South East,R3
3815,TONIMBUK,VIC,145.726311,-38.01378,21201.0,Cardinia,212.0,Melbourne - South East,R3
3816,LABERTOUCHE,VIC,145.787991,-38.043541999999995,21201.0,Cardinia,212.0,Melbourne - South East,R3
3816,LONGWARRY,VIC,145.787991,-38.043541999999995,21201.0,Cardinia,212.0,Melbourne - South East,R3
3816,LONGWARRY NORTH,VIC,145.787991,-38.043541999999995,21201.0,Cardinia,212.0,Melbourne - South East,R3
3816,MODELLA,VIC,145.787991,-38.043541999999995,21201.0,Cardinia,212.0,Melbourne - South East,R3
3833,ADA,VIC,145.851865,-37.84222154,21105.0,Yarra Ranges,211.0,Melbourne - Outer East,R3
3833,BAW BAW,VIC,146.077886,-37.829347,21105.0,Yarra Ranges,211.0,Melbourne - Outer East,R3
3833,BAW BAW VILLAGE,VIC,146.077886,-37.829347,21105.0,Yarra Ranges,211.0,Melbourne - Outer East,R3
3833,GENTLE ANNIE,VIC,145.8366168,-37.93840381,21105.0,Yarra Ranges,211.0,Melbourne - Outer East,R3
3833,ICY CREEK,VIC,146.077886,-37.829347,21105.0,Yarra Ranges,211.0,Melbourne - Outer East,R3
3833,LOCH VALLEY,VIC,146.077886,-37.829347,21105.0,Yarra Ranges,211.0,Melbourne - Outer East,R3
3833,MT BAW BAW,VIC,146.077886,-37.829347,21105.0,Yarra Ranges,211.0,Melbourne - Outer East,R3
3833,NOOJEE,VIC,146.077886,-37.829347,21105.0,Yarra Ranges,211.0,Melbourne - Outer East,R3
3833,PIEDMONT,VIC,146.077886,-37.829347,21105.0,Yarra Ranges,211.0,Melbourne - Outer East,R3
3833,TANJIL BREN,VIC,146.077886,-37.829347,21105.0,Yarra Ranges,211.0,Melbourne - Outer East,R3
3833,TOORONGO,VIC,146.077886,-37.829347,21105.0,Yarra Ranges,211.0,Melbourne - Outer East,R3
3833,VESPER,VIC,146.077886,-37.829347,21105.0,Yarra Ranges,211.0,Melbourne - Outer East,R3
3975,LYNBROOK,VIC,145.231114,-38.053540000000005,21204.0,Dandenong,212.0,Melbourne - South East,R1
3975,LYNDHURST,VIC,145.231114,-38.053540000000005,21204.0,Dandenong,212.0,Melbourne - South East,R1
3976,HAMPTON PARK,VIC,145.264296,-38.043995,21203.0,Casey - South,212.0,Melbourne - South East,R1
3978,CARDINIA,VIC,145.38460600000002,-38.135009000000004,21203.0,Casey - South,212.0,Melbourne - South East,R3
3978,CLYDE,VIC,145.38460600000002,-38.135009000000004,21203.0,Casey - South,212.0,Melbourne - South East,R3
3978,CLYDE NORTH,VIC,145.38460600000002,-38.135009000000004,21203.0,Casey - South,212.0,Melbourne - South East,R3
3980,BLIND BIGHT,VIC,145.35693700000002,-38.204448,21203.0,Casey - South,212.0,Melbourne - South East,R3
3980,TOORADIN,VIC,145.35693700000002,-38.204448,21203.0,Casey - South,212.0,Melbourne - South East,R3
3980,WARNEET,VIC,145.35693700000002,-38.204448,21203.0,Casey - South,212.0,Melbourne - South East,R3
3981,BAYLES,VIC,145.575,-38.207298,21201.0,Cardinia,212.0,Melbourne - South East,R3
3981,CATANI,VIC,145.575,-38.207298,21201.0,Cardinia,212.0,Melbourne - South East,R3
3981,DALMORE,VIC,145.575,-38.207298,21201.0,Cardinia,212.0,Melbourne - South East,R3
3981,HEATH HILL,VIC,145.575,-38.207298,21201.0,Cardinia,212.0,Melbourne - South East,R3
3981,KOO WEE RUP,VIC,145.575,-38.207298,21201.0,Cardinia,212.0,Melbourne - South East,R3
3981,KOO WEE RUP NORTH,VIC,145.575,-38.207298,21201.0,Cardinia,212.0,Melbourne - South East,R3
3981,YANNATHAN,VIC,145.575,-38.207298,21201.0,Cardinia,212.0,Melbourne - South East,R3
3984,ADAMS ESTATE,VIC,145.56397900000002,-38.312647,21201.0,Cardinia,212.0,Melbourne - South East,R3
3984,CALDERMEADE,VIC,145.56397900000002,-38.312647,21201.0,Cardinia,212.0,Melbourne - South East,R3
3984,CORINELLA,VIC,145.56397900000002,-38.312647,21201.0,Cardinia,212.0,Melbourne - South East,R3
3984,CORONET BAY,VIC,145.56397900000002,-38.312647,21201.0,Cardinia,212.0,Melbourne - South East,R3
3984,GRANTVILLE,VIC,145.56397900000002,-38.312647,21201.0,Cardinia,212.0,Melbourne - South East,R3
3984,JAM JERRUP,VIC,145.56397900000002,-38.312647,21201.0,Cardinia,212.0,Melbourne - South East,R3
3984,LANG LANG,VIC,145.56397900000002,-38.312647,21201.0,Cardinia,212.0,Melbourne - South East,R3
3984,LANG LANG EAST,VIC,145.56397900000002,-38.312647,21201.0,Cardinia,212.0,Melbourne - South East,R3
3984,MONOMEITH,VIC,145.56397900000002,-38.312647,21201.0,Cardinia,212.0,Melbourne - South East,R3
3984,PIONEER BAY,VIC,145.56397900000002,-38.312647,21201.0,Cardinia,212.0,Melbourne - South East,R3
3984,QUEENSFERRY,VIC,145.56397900000002,-38.312647,21201.0,Cardinia,212.0,Melbourne - South East,R3
3984,TENBY POINT,VIC,145.56397900000002,-38.312647,21201.0,Cardinia,212.0,Melbourne - South East,R3
3984,THE GURDIES,VIC,145.56397900000002,-38.312647,21201.0,Cardinia,212.0,Melbourne - South East,R3
3987,NYORA,VIC,145.689142,-38.309048,21201.0,Cardinia,212.0,Melbourne - South East,R3
